OBJECT_NAME,OBJECT_ID,EPOCH,MEAN_MOTION,ECCENTRICITY,INCLINATION,RA_OF_ASC_NODE,ARG_OF_PERICENTER,MEAN_ANOMALY,EPHEMERIS_TYPE,CLASSIFICATION_TYPE,NORAD_CAT_ID,ELEMENT_SET_NO,REV_AT_EPOCH,BSTAR,MEAN_MOTION_DOT,MEAN_MOTION_DDOT
JILIN-1 07,2018-008E,2026-07-16T14:58:56.496864,15.35178308,.00065935,97.1764,216.7758,321.9207,38.1571,0,U,43159,999,46951,.14135323E-3,.4751E-4,0
JILIN-1 08,2018-008F,2026-07-16T13:55:24.848544,15.34019326,.00051404,97.1802,216.0158,347.2772,12.8341,0,U,43160,999,46945,.99457792E-4,.3198E-4,0
S-NET D,2018-014G,2026-07-16T06:58:34.896288,15.16922878,.00061972,97.5332,101.9008,280.1842,79.8692,0,U,43186,999,46317,.1287945E-3,.2472E-4,0
S-NET B,2018-014H,2026-07-16T07:15:53.885664,15.16892600,.00068057,97.5337,101.9001,273.9137,86.1318,0,U,43187,999,46317,.12084891E-3,.2313E-4,0
S-NET A,2018-014J,2026-07-16T06:56:44.055456,15.16931083,.00066944,97.5346,102.1015,275.0642,84.9827,0,U,43188,999,46317,.12815613E-3,.246E-4,0
S-NET C,2018-014K,2026-07-16T07:21:42.298848,15.16883754,.00080493,97.5365,102.1976,265.5764,94.4549,0,U,43189,999,46172,.11697893E-3,.2237E-4,0
PAZ,2018-020A,2026-07-16T14:47:02.698080,15.19145971,.00017063,97.4457,204.5838,88.1239,272.0191,0,U,43215,999,46547,.45725579E-4,.893E-5,0
GOES 17,2018-022A,2026-07-16T12:53:42.479808,1.00270927,.00005724,1.0105,85.2348,76.1104,236.9514,0,U,43226,999,3071,0,-.194E-5,0
LKW-4,2018-025A,2026-07-16T12:29:38.201856,15.64607766,.00033837,97.6353,10.7486,180.7875,179.3379,0,U,43236,999,46461,.32677877E-3,.315E-3,0
ZHUHAI-1 OVS-02,2018-040B,2026-07-16T14:57:42.585984,15.25387465,.00051736,97.0380,213.1130,132.0674,228.1006,0,U,43440,999,45720,.13975311E-3,.3462E-4,0
ZHUHAI-1 OHS-02,2018-040C,2026-07-16T14:12:00.606816,15.26279677,.00112831,97.0357,220.0519,121.1092,239.1256,0,U,43441,999,11876,.1643949E-3,.4202E-4,0
GAOFEN-6,2018-048A,2026-07-16T14:52:23.833920,14.76386763,.00121255,98.0958,260.3251,77.5152,282.7414,0,U,43484,999,43773,.13337708E-3,.875E-5,0
LUOJIA-1 01,2018-048B,2026-07-16T15:22:55.132032,14.87385455,.00096737,97.8101,275.3559,33.4700,326.7126,0,U,43485,999,43859,.17250496E-3,.1506E-4,0
PAKTES 1A,2018-056A,2026-07-16T13:44:49.889760,14.99208253,.00197541,98.1289,355.3130,15.8670,344.3167,0,U,43529,999,43632,.99640294E-4,.1152E-4,0
PRSS-1,2018-056B,2026-07-16T15:03:24.118272,14.82032865,.00012993,97.7810,264.6805,86.7241,273.4121,0,U,43530,999,43279,.14558614E-3,.1105E-4,0
HAIYANG-1C,2018-068A,2026-07-16T14:47:50.313120,14.34187442,.00111165,98.5185,269.4975,14.2911,345.8586,0,U,43609,999,41130,.87953977E-4,.203E-5,0
SSTL S1-4,2018-071A,2026-07-16T13:57:28.314144,14.96204692,.00023476,97.4983,67.9664,96.3754,263.7735,0,U,43618,999,42733,.50246946E-4,.512E-5,0
HAIYANG-2B,2018-081A,2026-07-16T14:43:45.676704,13.79307093,.00009478,99.3284,205.9263,144.9556,215.1658,0,U,43655,999,38898,.1770033E-3,.138E-5,0
CFOSAT,2018-083A,2026-07-15T22:18:10.173888,15.16538301,.000183,97.3616,200.6163,75.6723,284.4713,0,U,43662,999,42679,.90896E-4,.1708E-4,0
TEN-KOH,2018-084G,2026-07-16T11:35:56.421888,15.03050581,.00098115,98.0762,31.0792,26.6983,333.4744,0,U,43677,999,42056,.11998435E-3,.1551E-4,0
DIWATA-2B,2018-084H,2026-07-16T13:52:15.384576,15.00566575,.00127522,98.1210,35.0731,80.2675,279.9987,0,U,43678,999,42062,.92242091E-4,.11E-4,0
STARS-AO,2018-084J,2026-07-16T13:17:46.664448,15.17353335,.00035464,98.0470,53.3377,78.1495,282.0134,0,U,43679,999,42192,.16832696E-3,.3284E-4,0
AUTCUBE 2,2018-084K,2026-07-16T12:23:46.578912,15.10270898,.00076812,98.0687,45.2468,309.5924,50.4625,0,U,43681,999,42135,.12867174E-3,.2035E-4,0
METOP-C,2018-087A,2026-07-15T13:47:48.761088,14.21519167,.0002216,98.6630,255.6574,93.2289,266.9142,0,U,43689,999,39886,.44045E-4,.53E-6,0
ES'HAIL 2,2018-090A,2026-07-16T13:26:39.322176,1.00271679,.00022573,0.0155,59.3194,99.5849,2.9240,0,U,43700,999,2797,0,.133E-5,0
MOHAMMED VI-B,2018-095A,2026-07-16T15:28:20.381376,14.77084823,.00017881,97.9551,269.5621,92.4672,267.6742,0,U,43717,999,41253,.13618425E-3,.911E-5,0
HYSIS,2018-096A,2026-07-16T15:33:16.399872,14.78672312,.00018121,97.9830,264.1631,82.5488,277.5928,0,U,43719,999,41177,.77310956E-4,.515E-5,0
COSMOS 2530 (RODNIK-S 16),2018-097A,2026-07-16T14:20:02.674752,12.42882197,.00189128,82.5115,204.0279,335.8320,24.1871,0,U,43751,999,34594,.15157314E-3,.31E-6,0
COSMOS 2531 (RODNIK-S 17),2018-097B,2026-07-16T14:51:04.398624,12.42913121,.00165304,82.5160,205.0829,355.9327,4.1616,0,U,43752,999,34596,-.62075975E-3,-.76E-6,0
