JILIN-1 07              
1 43159U 18008E   26197.62426501  .00004751  00000+0  14135-3 0  9993
2 43159  97.1764 216.7758 0006593 321.9207  38.1571 15.35178308469512
JILIN-1 08              
1 43160U 18008F   26197.58014871  .00003198  00000+0  99458-4 0  9999
2 43160  97.1802 216.0158 0005140 347.2772  12.8341 15.34019326469459
S-NET D                 
1 43186U 18014G   26197.29068167  .00002472  00000+0  12879-3 0  9994
2 43186  97.5332 101.9008 0006197 280.1842  79.8692 15.16922878463171
S-NET B                 
1 43187U 18014H   26197.30270701  .00002313  00000+0  12085-3 0  9999
2 43187  97.5337 101.9001 0006805 273.9137  86.1318 15.16892600463178
S-NET A                 
1 43188U 18014J   26197.28939879  .00002460  00000+0  12816-3 0  9990
2 43188  97.5346 102.1015 0006694 275.0642  84.9827 15.16931083463177
S-NET C                 
1 43189U 18014K   26197.30673957  .00002237  00000+0  11698-3 0  9995
2 43189  97.5365 102.1976 0008049 265.5764  94.4549 15.16883754461727
PAZ                     
1 43215U 18020A   26197.61600345  .00000893  00000+0  45726-4 0  9993
2 43215  97.4457 204.5838 0001706  88.1239 272.0191 15.19145971465479
GOES 17                 
1 43226U 18022A   26197.53729722 -.00000194  00000+0  00000+0 0  9995
2 43226   1.0105  85.2348 0000572  76.1104 236.9514  1.00270927 30718
LKW-4                   
1 43236U 18025A   26197.52058104  .00031500  00000+0  32678-3 0  9991
2 43236  97.6353  10.7486 0003383 180.7875 179.3379 15.64607766464610
ZHUHAI-1 OVS-02         
1 43440U 18040B   26197.62340956  .00003462  00000+0  13975-3 0  9990
2 43440  97.0380 213.1130 0005173 132.0674 228.1006 15.25387465457207
ZHUHAI-1 OHS-02         
1 43441U 18040C   26197.59167369  .00004202  00000+0  16439-3 0  9993
2 43441  97.0357 220.0519 0011283 121.1092 239.1256 15.26279677118762
GAOFEN-6                
1 43484U 18048A   26197.61972030  .00000875  00000+0  13338-3 0  9997
2 43484  98.0958 260.3251 0012125  77.5152 282.7414 14.76386763437734
LUOJIA-1 01             
1 43485U 18048B   26197.64091588  .00001506  00000+0  17250-3 0  9990
2 43485  97.8101 275.3559 0009673  33.4700 326.7126 14.87385455438596
PAKTES 1A               
1 43529U 18056A   26197.57279965  .00001152  00000+0  99640-4 0  9998
2 43529  98.1289 355.3130 0019754  15.8670 344.3167 14.99208253436324
PRSS-1                  
1 43530U 18056B   26197.62736248  .00001105  00000+0  14559-3 0  9991
2 43530  97.7810 264.6805 0001299  86.7241 273.4121 14.82032865432793
HAIYANG-1C              
1 43609U 18068A   26197.61655455  .00000203  00000+0  87954-4 0  9998
2 43609  98.5185 269.4975 0011116  14.2911 345.8586 14.34187442411306
SSTL S1-4               
1 43618U 18071A   26197.58157771  .00000512  00000+0  50247-4 0  9994
2 43618  97.4983  67.9664 0002347  96.3754 263.7735 14.96204692427337
HAIYANG-2B              
1 43655U 18081A   26197.61372311  .00000138  00000+0  17700-3 0  9999
2 43655  99.3284 205.9263 0000947 144.9556 215.1658 13.79307093388987
CFOSAT                  
1 43662U 18083A   26196.92928442  .00001708  00000+0  90896-4 0  9996
2 43662  97.3616 200.6163 0001830  75.6723 284.4713 15.16538301426795
TEN-KOH                 
1 43677U 18084G   26197.48329192  .00001551  00000+0  11998-3 0  9993
2 43677  98.0762  31.0792 0009811  26.6983 333.4744 15.03050581420569
DIWATA-2B               
1 43678U 18084H   26197.57795584  .00001100  00000+0  92242-4 0  9998
2 43678  98.1210  35.0731 0012752  80.2675 279.9987 15.00566575420620
STARS-AO                
1 43679U 18084J   26197.55401232  .00003284  00000+0  16833-3 0  9997
2 43679  98.0470  53.3377 0003546  78.1495 282.0134 15.17353335421923
AUTCUBE 2               
1 43681U 18084K   26197.51651133  .00002035  00000+0  12867-3 0  9999
2 43681  98.0687  45.2468 0007681 309.5924  50.4625 15.10270898421353
METOP-C                 
1 43689U 18087A   26196.57486992  .00000053  00000+0  44045-4 0  9996
2 43689  98.6630 255.6574 0002216  93.2289 266.9142 14.21519167398863
ES'HAIL 2               
1 43700U 18090A   26197.56017734  .00000133  00000+0  00000+0 0  9995
2 43700   0.0155  59.3194 0002257  99.5849   2.9240  1.00271679 27973
MOHAMMED VI-B           
1 43717U 18095A   26197.64468034  .00000911  00000+0  13618-3 0  9997
2 43717  97.9551 269.5621 0001788  92.4672 267.6742 14.77084823412538
HYSIS                   
1 43719U 18096A   26197.64810648  .00000515  00000+0  77311-4 0  9993
2 43719  97.9830 264.1631 0001812  82.5488 277.5928 14.78672312411773
COSMOS 2530 (RODNIK-S *)
1 43751U 18097A   26197.59725318  .00000031  00000+0  15157-3 0  9995
2 43751  82.5115 204.0279 0018912 335.8320  24.1871 12.42882197345945
COSMOS 2531 (RODNIK-S *)
1 43752U 18097B   26197.61880091 -.00000076  00000+0 -62076-3 0  9992
2 43752  82.5160 205.0829 0016530 355.9327   4.1616 12.42913121345961
